{"type": "FeatureCollection", "features": [ {"type": "Feature", "properties": {"norad_id": 66628, "name": "STARLINK-35862", "group": "last-30-days", "lat": 48.927359457244215, "lon": -118.05903898692588, "alt_km": 411.47078713455903, "timestamp": "2025-12-13T16:48:31.465911+00:00", "meta": {"OBJECT_NAME": "STARLINK-35862", "OBJECT_ID": "2025-271M", "EPOCH": "2025-12-12T20:00:01.999872", "MEAN_MOTION": 15.49229575, "ECCENTRICITY": 8.688e-05, "INCLINATION": 53.1595, "RA_OF_ASC_NODE": 186.7412, "ARG_OF_PERICENTER": 73.1996, "MEAN_ANOMALY": 198.8233, "EPHEMERIS_TYPE": 0, "CLASSIFICATION_TYPE": "U", "NORAD_CAT_ID": 66628, "ELEMENT_SET_NO": 999, "REV_AT_EPOCH": 425, "BSTAR": 0.0012567389, "MEAN_MOTION_DOT": 0.00069878, "MEAN_MOTION_DDOT": 0}, "tle": {"line1": "1 66628U 25271M   25346.83335648  .00069878  00000+0  12567-2 0  9995", "line2": "2 66628  53.1595 186.7412 0000868  73.1996 198.8233 15.49229575  4258"}}, "geometry": {"type": "Point", "coordinates": [-118.05903898692588, 48.927359457244215]}}, {"type": "Feature", "properties": {"norad_id": 66629, "name": "STARLINK-35956", "group": "last-30-days", "lat": 49.675155001585104, "lon": -115.36847737742504, "alt_km": 411.3928773498237, "timestamp": "2025-12-13T16:48:31.465932+00:00", "meta": {"OBJECT_NAME": "STARLINK-35956", "OBJECT_ID": "2025-271N", "EPOCH": "2025-12-12T20:00:01.999872", "MEAN_MOTION": 15.49227898, "ECCENTRICITY": 8.411e-05, "INCLINATION": 53.1595, "RA_OF_ASC_NODE": 186.7376, "ARG_OF_PERICENTER": 73.5806, "MEAN_ANOMALY": 200.3564, "EPHEMERIS_TYPE": 0, "CLASSIFICATION_TYPE": "U", "NORAD_CAT_ID": 66629, "ELEMENT_SET_NO": 999, "REV_AT_EPOCH": 425, "BSTAR": 0.0012375013, "MEAN_MOTION_DOT": 0.00068787, "MEAN_MOTION_DDOT": 0}, "tle": {"line1": "1 66629U 25271N   25346.83335648  .00068787  00000+0  12375-2 0  9991", "line2": "2 66629  53.1595 186.7376 0000841  73.5806 200.3564 15.49227898  4255"}}, "geometry": {"type": "Point", "coordinates": [-115.36847737742504, 49.675155001585104]}}, {"type": "Feature", "properties": {"norad_id": 66630, "name": "STARLINK-35949", "group": "last-30-days", "lat": 50.338054827180585, "lon": -112.68903156759056, "alt_km": 411.41615875252774, "timestamp": "2025-12-13T16:48:31.465944+00:00", "meta": {"OBJECT_NAME": "STARLINK-35949", "OBJECT_ID": "2025-271P", "EPOCH": "2025-12-12T20:00:01.999872", "MEAN_MOTION": 15.49297866, "ECCENTRICITY": 0.00012569, "INCLINATION": 53.1598, "RA_OF_ASC_NODE": 186.7322, "ARG_OF_PERICENTER": 98.9024, "MEAN_ANOMALY": 176.9415, "EPHEMERIS_TYPE": 0, "CLASSIFICATION_TYPE": "U", "NORAD_CAT_ID": 66630, "ELEMENT_SET_NO": 999, "REV_AT_EPOCH": 425, "BSTAR": -0.00058312883, "MEAN_MOTION_DOT": -0.00032731, "MEAN_MOTION_DDOT": 0}, "tle": {"line1": "1 66630U 25271P   25346.83335648 -.00032731  00000+0 -58313-3 0  9998", "line2": "2 66630  53.1598 186.7322 0001256  98.9024 176.9415 15.49297866  4250"}}, "geometry": {"type": "Point", "coordinates": [-112.68903156759056, 50.338054827180585]}}, {"type": "Feature", "properties": {"norad_id": 66631, "name": "STARLINK-35965", "group": "last-30-days", "lat": 50.96024727938205, "lon": -109.81972337188523, "alt_km": 411.4027040056153, "timestamp": "2025-12-13T16:48:31.465954+00:00", "meta": {"OBJECT_NAME": "STARLINK-35965", "OBJECT_ID": "2025-271Q", "EPOCH": "2025-12-12T20:00:01.999872", "MEAN_MOTION": 15.49205043, "ECCENTRICITY": 6.575e-05, "INCLINATION": 53.1596, "RA_OF_ASC_NODE": 186.7293, "ARG_OF_PERICENTER": 67.3448, "MEAN_ANOMALY": 210.4258, "EPHEMERIS_TYPE": 0, "CLASSIFICATION_TYPE": "U", "NORAD_CAT_ID": 66631, "ELEMENT_SET_NO": 999, "REV_AT_EPOCH": 425, "BSTAR": 0.0012594724, "MEAN_MOTION_DOT": 0.00069971, "MEAN_MOTION_DDOT": 0}, "tle": {"line1": "1 66631U 25271Q   25346.83335648  .00069971  00000+0  12595-2 0  9994", "line2": "2 66631  53.1596 186.7293 0000657  67.3448 210.4258 15.49205043  4255"}}, "geometry": {"type": "Point", "coordinates": [-109.81972337188523, 50.96024727938205]}}, {"type": "Feature", "properties": {"norad_id": 66632, "name": "STARLINK-35973", "group": "last-30-days", "lat": 51.50270546372682, "lon": -106.92218333612276, "alt_km": 411.2298138766819, "timestamp": "2025-12-13T16:48:31.465967+00:00", "meta": {"OBJECT_NAME": "STARLINK-35973", "OBJECT_ID": "2025-271R", "EPOCH": "2025-12-12T20:00:01.999872", "MEAN_MOTION": 15.4919898, "ECCENTRICITY": 8.366e-05, "INCLINATION": 53.1595, "RA_OF_ASC_NODE": 186.7251, "ARG_OF_PERICENTER": 76.5026, "MEAN_ANOMALY": 203.1855, "EPHEMERIS_TYPE": 0, "CLASSIFICATION_TYPE": "U", "NORAD_CAT_ID": 66632, "ELEMENT_SET_NO": 999, "REV_AT_EPOCH": 420, "BSTAR": 0.0012297529, "MEAN_MOTION_DOT": 0.0006828, "MEAN_MOTION_DDOT": 0}, "tle": {"line1": "1 66632U 25271R   25346.83335648  .00068280  00000+0  12298-2 0  9997", "line2": "2 66632  53.1595 186.7251 0000836  76.5026 203.1855 15.49198980  4200"}}, "geometry": {"type": "Point", "coordinates": [-106.92218333612276, 51.50270546372682]}}, {"type": "Feature", "properties": {"norad_id": 66633, "name": "STARLINK-35948", "group": "last-30-days", "lat": 51.979010257506545, "lon": -103.9120222209208, "alt_km": 411.16512188168235, "timestamp": "2025-12-13T16:48:31.465979+00:00", "meta": {"OBJECT_NAME": "STARLINK-35948", "OBJECT_ID": "2025-271S", "EPOCH": "2025-12-12T20:00:01.999872", "MEAN_MOTION": 15.49302804, "ECCENTRICITY": 0.00012735, "INCLINATION": 53.1595, "RA_OF_ASC_NODE": 186.7199, "ARG_OF_PERICENTER": 93.5768, "MEAN_ANOMALY": 188.0201, "EPHEMERIS_TYPE": 0, "CLASSIFICATION_TYPE": "U", "NORAD_CAT_ID": 66633, "ELEMENT_SET_NO": 999, "REV_AT_EPOCH": 425, "BSTAR": -0.00080132585, "MEAN_MOTION_DOT": -0.00044751, "MEAN_MOTION_DDOT": 0}, "tle": {"line1": "1 66633U 25271S   25346.83335648 -.00044751  00000+0 -80133-3 0  9991", "line2": "2 66633  53.1595 186.7199 0001273  93.5768 188.0201 15.49302804  4253"}}, "geometry": {"type": "Point", "coordinates": [-103.9120222209208, 51.979010257506545]}}, {"type": "Feature", "properties": {"norad_id": 66634, "name": "STARLINK-35967", "group": "last-30-days", "lat": 52.373820218254, "lon": -100.86836086843003, "alt_km": 411.13830953023535, "timestamp": "2025-12-13T16:48:31.465989+00:00", "meta": {"OBJECT_NAME": "STARLINK-35967", "OBJECT_ID": "2025-271T", "EPOCH": "2025-12-12T20:00:01.999872", "MEAN_MOTION": 15.49306084, "ECCENTRICITY": 0.00012746, "INCLINATION": 53.1597, "RA_OF_ASC_NODE": 186.7158, "ARG_OF_PERICENTER": 95.6219, "MEAN_ANOMALY": 187.8914, "EPHEMERIS_TYPE": 0, "CLASSIFICATION_TYPE": "U", "NORAD_CAT_ID": 66634, "ELEMENT_SET_NO": 999, "REV_AT_EPOCH": 419, "BSTAR": -0.00093124779, "MEAN_MOTION_DOT": -0.00051893, "MEAN_MOTION_DDOT": 0}, "tle": {"line1": "1 66634U 25271T   25346.83335648 -.00051893  00000+0 -93125-3 0  9992", "line2": "2 66634  53.1597 186.7158 0001274  95.6219 187.8914 15.49306084  4191"}}, "geometry": {"type": "Point", "coordinates": [-100.86836086843003, 52.373820218254]}}, {"type": "Feature", "properties": {"norad_id": 66635, "name": "STARLINK-35955", "group": "last-30-days", "lat": 52.65277753058534, "lon": -98.17582680484414, "alt_km": 412.76578244299344, "timestamp": "2025-12-13T16:48:31.465999+00:00", "meta": {"OBJECT_NAME": "STARLINK-35955", "OBJECT_ID": "2025-271U", "EPOCH": "2025-12-12T20:00:01.999872", "MEAN_MOTION": 15.49503802, "ECCENTRICITY": 3.724e-05, "INCLINATION": 53.1598, "RA_OF_ASC_NODE": 186.7125, "ARG_OF_PERICENTER": 118.7657, "MEAN_ANOMALY": 166.6477, "EPHEMERIS_TYPE": 0, "CLASSIFICATION_TYPE": "U", "NORAD_CAT_ID": 66635, "ELEMENT_SET_NO": 999, "REV_AT_EPOCH": 425, "BSTAR": -0.0066271895, "MEAN_MOTION_DOT": -0.00355173, "MEAN_MOTION_DDOT": 0}, "tle": {"line1": "1 66635U 25271U   25346.83335648 -.00355173  00000+0 -66272-2 0  9993", "line2": "2 66635  53.1598 186.7125 0000372 118.7657 166.6477 15.49503802  4251"}}, "geometry": {"type": "Point", "coordinates": [-98.17582680484414, 52.65277753058534]}}, {"type": "Feature", "properties": {"norad_id": 66636, "name": "STARLINK-35968", "group": "last-30-days", "lat": 52.92328911178523, "lon": -94.6190973212353, "alt_km": 411.05584506500054, "timestamp": "2025-12-13T16:48:31.466009+00:00", "meta": {"OBJECT_NAME": "STARLINK-35968", "OBJECT_ID": "2025-271V", "EPOCH": "2025-12-12T20:00:01.999872", "MEAN_MOTION": 15.49193993, "ECCENTRICITY": 8.599e-05, "INCLINATION": 53.1597, "RA_OF_ASC_NODE": 186.7078, "ARG_OF_PERICENTER": 67.0945, "MEAN_ANOMALY": 220.2625, "EPHEMERIS_TYPE": 0, "CLASSIFICATION_TYPE": "U", "NORAD_CAT_ID": 66636, "ELEMENT_SET_NO": 999, "REV_AT_EPOCH": 425, "BSTAR": 0.0012505411, "MEAN_MOTION_DOT": 0.00069439, "MEAN_MOTION_DDOT": 0}, "tle": {"line1": "1 66636U 25271V   25346.83335648  .00069439  00000+0  12505-2 0  9999", "line2": "2 66636  53.1597 186.7078 0000859  67.0945 220.2625 15.49193993  4252"}}, "geometry": {"type": "Point", "coordinates": [-94.6190973212353, 52.92328911178523]}}, {"type": "Feature", "properties": {"norad_id": 66637, "name": "STARLINK-35953", "group": "last-30-days", "lat": 53.072737615134024, "lon": -91.44582966089452, "alt_km": 411.1491743158267, "timestamp": "2025-12-13T16:48:31.466019+00:00", "meta": {"OBJECT_NAME": "STARLINK-35953", "OBJECT_ID": "2025-271W", "EPOCH": "2025-12-12T20:00:01.999872", "MEAN_MOTION": 15.49194395, "ECCENTRICITY": 6.832e-05, "INCLINATION": 53.1596, "RA_OF_ASC_NODE": 186.704, "ARG_OF_PERICENTER": 69.7473, "MEAN_ANOMALY": 219.5244, "EPHEMERIS_TYPE": 0, "CLASSIFICATION_TYPE": "U", "NORAD_CAT_ID": 66637, "ELEMENT_SET_NO": 999, "REV_AT_EPOCH": 425, "BSTAR": 0.0012461835, "MEAN_MOTION_DOT": 0.00069195, "MEAN_MOTION_DDOT": 0}, "tle": {"line1": "1 66637U 25271W   25346.83335648  .00069195  00000+0  12462-2 0  9991", "line2": "2 66637  53.1596 186.7040 0000683  69.7473 219.5244 15.49194395  4256"}}, "geometry": {"type": "Point", "coordinates": [-91.44582966089452, 53.072737615134024]}}]}